#dP2022 10 20 12  0  0.00000000      96 __u+U ITR00 EXT  IAC
## 2232 388800.00000000   900.00000000 59872 0.5000000000000
+  117   C06C07C08C09C10C11C12C13C14C16C19C20C21C22C23C24C25
+        C26C27C28C29C30C32C33C34C35C36C37C38C39C40C41C42C43
+        C44C45C46E01E02E03E04E05E07E08E09E10E11E12E13E14E15
+        E18E19E24E25E26E27E30E31E33E34E36G01G02G03G04G05G06
+        G07G08G09G10G11G12G13G14G15G16G17G18G19G20G21G22G23
+        G24G25G26G27G28G29G30G31G32J02J03J04R01R02R03R04R05
+        R07R08R09R11R12R13R14R15R17R18R19R20R21R22R24  0  0
++        11  9 11  9  9  9  9 11  9 10  9  9 10  8  8  8  8
++         9  8  8  8  8  8  8  8  8 10  9  9  9 10  9  8  9
++         8  8  9  8  9  8  8  8  9  7  8 11  8  8  9  8 10
++        10  8  8  8  8  8  9  7 10  9  8  7  8  8  8  8  8
++         8  7  8  8  9  8  8  8  8  8  8  8  8  7  7  7  8
++         7  7  8  7  8  8  7  8  7  9 10 11  7  8  9  8  7
++         8  9 10 10  8 10  9  9  9  8  9  9  8  9 10  0  0
%c M  cc GPS ccc cccc cccc cccc cccc ccccc ccccc ccccc ccccc
%c cc cc ccc ccc cccc cccc cccc cccc ccccc ccccc ccccc ccccc
%f  0.0000000  0.000000000  0.00000000000  0.000000000000000
%f  0.0000000  0.000000000  0.00000000000  0.000000000000000
%i    0    0    0    0      0      0      0      0         0
%i    0    0    0    0      0      0      0      0         0
/* IAC                                ULTRA-RAPID PREDICTION
/* S/V CLOCKS ARE ALIGNED TO GNSS TIME                      
/* G:C1WC2W R:C1PC2P E:C1XC5X C:C2IC6I J:C1CC2S             
/* PCV:IGS14_2218 OL/AL:FES2004  NONE     YN ORB:CoN CLK:CoN
*  2022 10 20 20  0  0.00000000
PC06  -5102.898605  24615.247565 -33828.314214    889.410678
PC07 -17915.980309  34241.045988  16730.743500    328.592327
PC08  -4439.107808  39156.588690  15255.851098    498.125971
PC09   5381.142672  27808.215065 -30713.530451   -829.266214
PC10 -10258.497698  34119.676135  22476.269233     80.813353
PC11  19307.886404  15888.573458  12500.038755   -339.943486
PC12   1215.969611  16305.059559  22659.951515   -474.390117
PC13   1223.260881  41735.256796   7059.180561    112.089874
PC14   9784.625927  12459.827295 -22962.288326    586.003570
PC16  -9931.995938  21879.305344 -34464.789769    127.023715
PC19 -17380.041796  -4174.225096  21441.474670   -921.413681
PC20  -2147.217886 -17742.711710  21440.956341    859.458701
PC21 -15514.300464  21568.836181  -8502.402078   -645.694773
PC22 -23293.529263  12419.871934   9009.639600   -839.643354
PC23  15587.226252  -4995.830078  22607.937481   -652.329934
PC24   6018.802403  27256.924937    701.966973   -707.357409
PC25  16162.009728  14604.796159  17448.976135     12.586763
PC26  -5261.677620  23365.869798 -14363.660733    -24.285045
PC27   8699.285436 -13659.872438 -22742.327862     38.920332
PC28  23747.707780  -2348.829124 -14468.573429     26.568170
PC29 -25749.170222 -10242.957949  -3274.941417     29.470787
PC30 -11566.850846 -17162.095947 -18730.651782      0.617366
PC32  15418.262420 -21689.612055   8416.964929   -751.149962
PC33  17365.284969   4166.449427 -21451.046889   -931.083265
PC34  12688.940507  17087.879535  18032.072569     21.103244
PC35 -24459.284170   2164.711972  13278.932635     50.877970
PC36 -15653.406761 -15545.960313 -17057.225308   -782.951574
PC37   6671.408696 -22339.412863  15331.708283   -571.969216
PC38  -9416.601154  35234.581941  21335.048140     32.450614
PC39 -14309.799147  20005.196792 -34256.231864     -0.678895
PC40 -25683.094291  29503.246211  15466.535770     -6.431533
PC41  23277.201975 -12106.729039  -9459.495220   -192.699180
PC42   1051.028350  18384.308538 -20928.730459   -510.674004
PC43  25427.086159  10762.171437   3983.285915     20.629834
PC44  -8498.685321  13983.909570  22598.380359     87.818968
PC45 -15353.136441   5425.142741 -22660.261889    -12.243240
PC46  -7140.349032 -26844.001143  -2418.812746     -7.597803
PE01 -18400.497400   6855.054482 -22144.095668   -550.228974
PE02  18415.134390  -7028.505190  22081.382833    331.948291
PE03  29142.899339  -5162.335537   -755.258267   -611.741533
PE04 -19227.165978  15486.642786 -16332.945985  -1140.901687
PE05  22123.807250   8428.370730 -17772.118411   -132.615763
PE07  -2366.953889 -16898.377011  24184.721292   -714.854616
PE08  19183.803419 -15450.223243  16414.733802   -618.677537
PE09   2198.396191  16787.910664 -24284.655779   -700.201513
PE10    874.025283  21122.857296  20718.941152   -485.057061
PE11  10199.523611  24502.506419  13096.378454   1700.322494
PE12  -8035.154197  14775.157631  24356.241066   -232.891262
PE13  -9567.088557 -24342.419206 -13850.523876    430.676858
PE14 -13692.603657 -16118.719414 -20136.807168     33.342200
PE15   8161.933658 -14540.435857 -24449.349089    712.781737
PE18  26674.132364   5995.892355   8237.843148   -838.519792
PE19 -29232.701614   3316.472267   3282.882378  -4213.697477
PE24  -2024.103880  27607.240801  10512.860329   -902.118269
PE25  12174.800926  13566.774048  23334.411626   -590.676785
PE26 -21753.370721 -19266.190291   5604.743068  -1750.105757
PE27   1198.715231 -27284.197190 -11391.633374   -420.051493
PE30  14383.402503 -24614.912131   7930.061214   -932.256011
PE31 -13882.587369  25136.030301  -7185.696830   -506.206651
PE33 -20959.016920  -3768.598541  20562.413930   -454.883701
PE34  20910.803223   3574.472485 -20654.981365    -10.459200
PE36  21505.324515  19777.762586  -4756.020035   -448.789128
PG01 -19322.815308 -10028.398246  15139.804535    264.407139
PG02  20398.519070   9707.214386 -13212.754456   -641.526889
PG03 -15334.474565  -1320.307562  21509.517131   -366.439932
PG04 -26156.348811  -1371.400781   4728.208839   -100.362107
PG05  10041.265235  13683.240932 -20573.599776   -101.151568
PG06   2937.031192  21426.333775  15429.224072    496.739941
PG07 -14539.166426   5635.540870 -21127.486292    296.687277
PG08 -21606.667692  -7047.873166 -14078.322612    -89.820032
PG09 -24619.639771   7769.964286  -6418.124417   -280.472230
PG10  11235.062607 -23845.482261  -1085.329844     -8.352672
PG11  11303.387703  23545.582755   4938.906108    -28.262835
PG12  15179.781518   2745.401057  21343.077319   -294.575713
PG13  14340.409121  13048.086687 -18408.734244    409.694714
PG14 -13365.629398  22679.399018  -3023.707142    -92.961039
PG15  22309.998138   5305.353281 -14084.919760    -19.266379
PG16  -4142.778851 -18763.012006 -18411.036702   -526.454168
PG17 -15186.103758  12892.288806  18040.971755    670.580093
PG18  13065.242078  -7376.404305 -21924.691679      7.687283
PG19  -3738.260217  14619.274939  21598.221015    226.437806
PG20   2366.911997  23953.792196 -11466.473322    476.768557
PG21 -20836.437187 -15336.567008   8145.709029    157.665501
PG22    347.422758 -15397.821762  22057.294847    349.330591
PG23  15751.418085 -18004.387752 -11404.092027     -1.087977
PG24  21100.596892  12066.735283  10858.200550     92.187051
PG25  17379.433204  -9821.415224  17088.151169    384.400293
PG26   1658.282711 -24614.675156  -9482.435802    233.155579
PG27 -10922.909657 -13056.734655 -20705.076542    194.558086
PG28  -8247.841790  24575.159177   6858.489950    326.387872
PG29  25697.501199  -4415.653918  -5326.816904   -561.159102
PG30  -5880.344511  16683.232355 -19649.556372   -537.183498
PG31  -3264.656321 -22001.079721  14010.173929   -197.462591
PG32  11456.230027 -14746.860571  18960.304955   -269.639997
PJ02 -23803.697645  32478.352990  -8072.592415     -7.720179
PJ03 -27274.291022  22073.793084  28469.921828     -3.205954
PJ04 -33045.329116  26372.709284   5452.644279    111.990237
PR01 -22183.696488   9255.298880   8521.824885     16.557603
PR02 -17055.749848  15820.575617 -10508.699885    -23.060580
PR03  -1599.988196  13039.496440 -21840.041920     65.815053
PR04  14284.960369   2877.758731 -20910.699441    161.890458
PR05  22431.759266  -8643.653695  -8483.366795    101.556726
PR07    716.526431 -12666.108938  22151.207150     42.890010
PR08 -14493.954517  -2821.194947  20858.441141    -67.734177
PR09   5443.182529 -21422.547712  12819.601333     83.099381
PR11  -9166.507147 -15291.425048 -18236.731530     23.989055
PR12 -10694.605825   4929.219727 -22600.578282     22.188977
PR13  -6074.546273  20329.552759 -14171.842193    -28.013684
PR14   2760.659414  25003.877571   4190.473153     24.188042
PR15   9382.358486  14428.920194  18848.205379     93.104825
PR17  10576.452250  15118.798438  17649.296957    570.836114
PR18  21306.086676  13686.401684   2901.091078     48.033769
PR19  21324.822700   6560.835022 -12373.896067   -208.007282
PR20   7565.449876  -7419.227971 -23190.177277    -80.592237
PR21 -11867.684529 -15319.054247 -16564.183333   -343.158819
PR22 -21041.096845 -14276.327010  -2052.840519     14.639745
PR24  -6964.411662   8448.355222  23057.354768    121.524134
EOF
